[{"OBJECT_NAME":"KUIPER-00112","OBJECT_ID":"2025-171U","EPOCH":"2026-03-09T10:38:34.560384","MEAN_MOTION":14.80061441,"ECCENTRICITY":2.5e-5,"INCLINATION":51.9008,"RA_OF_ASC_NODE":156.6907,"ARG_OF_PERICENTER":68.2896,"MEAN_ANOMALY":291.8093,"EPHEMERIS_TYPE":0,"CLASSIFICATION_TYPE":"U","NORAD_CAT_ID":65150,"ELEMENT_SET_NO":999,"REV_AT_EPOCH":3288,"BSTAR":0.00077040168,"MEAN_MOTION_DOT":5.675e-5,"MEAN_MOTION_DDOT":0},{"OBJECT_NAME":"PROITERES","OBJECT_ID":"2012-047B","EPOCH":"2026-03-09T20:04:01.587072","MEAN_MOTION":14.82270708,"ECCENTRICITY":0.0011422,"INCLINATION":98.2359,"RA_OF_ASC_NODE":347.7082,"ARG_OF_PERICENTER":21.2564,"MEAN_ANOMALY":338.9121,"EPHEMERIS_TYPE":0,"CLASSIFICATION_TYPE":"U","NORAD_CAT_ID":38756,"ELEMENT_SET_NO":999,"REV_AT_EPOCH":72759,"BSTAR":0.00018266794,"MEAN_MOTION_DOT":1.403e-5,"MEAN_MOTION_DDOT":0}]
